{"type":"FeatureCollection","features":[{"type":"Feature","properties":{"id":"main","name":"Baja Cape Loop","kind":"primary","distance_mi":284,"distance_km":457,"climbing_m":6175,"riding_days":9.5,"source":"RWGPS route 48551884 (sampled)"},"geometry":{"type":"LineString","coordinates":[[-109.70109,23.17727],[-109.74568,23.18247],[-109.78583,23.22917],[-109.82823,23.21688],[-109.84909,23.21821],[-109.86628,23.22208],[-109.89109,23.23012],[-109.91688,23.23633],[-109.93976,23.24307],[-109.96178,23.23785],[-109.96863,23.24612],[-109.98456,23.242],[-110.01121,23.24854],[-110.04599,23.25902],[-110.07398,23.27576],[-110.0789,23.29385],[-110.06569,23.31706],[-110.08311,23.32739],[-110.09134,23.38019],[-110.12623,23.41206],[-110.17484,23.43044],[-110.21319,23.42681],[-110.2052,23.48962],[-110.17516,23.50863],[-110.14213,23.54238],[-110.12228,23.56949],[-110.10582,23.60173],[-110.11333,23.63756],[-110.09936,23.6567],[-110.09592,23.68671],[-110.12499,23.70033],[-110.11109,23.74257],[-110.12792,23.77842],[-110.18225,23.83107],[-110.17197,23.8608],[-110.15187,23.88716],[-110.14664,23.89646],[-110.15274,23.90253],[-110.15287,23.9122],[-110.15175,23.92434],[-110.15695,23.9358],[-110.15894,23.95294],[-110.15567,23.96989],[-110.15212,23.9794],[-110.15238,23.98729],[-110.14976,23.99799],[-110.15779,24.00336],[-110.14901,24.01493],[-110.13605,24.01684],[-110.11987,24.02545],[-110.14468,24.04473],[-110.17944,24.06467],[-110.26073,24.09746],[-110.29359,24.11759],[-110.3009,24.13387],[-110.30682,24.13887],[-110.25695,24.09605],[-110.17146,24.05956],[-110.12707,24.02381],[-110.15698,24.00412],[-110.15223,23.98334],[-110.159,23.9523],[-110.15197,23.91706],[-110.14511,23.89403],[-110.11122,23.89396],[-110.08754,23.90935],[-110.06,23.91357],[-110.01376,23.92976],[-109.98853,23.9808],[-109.89152,23.95351],[-109.84322,23.94115],[-109.8374,23.9309],[-109.82778,23.91286],[-109.78276,23.87653],[-109.73234,23.82661],[-109.70386,23.79046],[-109.71169,23.75864],[-109.70856,23.71828],[-109.6995,23.66403],[-109.6666,23.629],[-109.6301,23.61959],[-109.57087,23.59111],[-109.51841,23.57039],[-109.51479,23.53864],[-109.47719,23.50887],[-109.45524,23.47486],[-109.42838,23.43999],[-109.42864,23.38947],[-109.44776,23.35303],[-109.47715,23.35614],[-109.49021,23.33536],[-109.50296,23.32697],[-109.51958,23.31998],[-109.54456,23.32222],[-109.56654,23.32274],[-109.56345,23.3043],[-109.56583,23.28225],[-109.57355,23.25409],[-109.58212,23.2224],[-109.61386,23.21252],[-109.65635,23.17761],[-109.70032,23.17746]]}},{"type":"Feature","properties":{"id":"los_cerritos","name":"Playa Los Cerritos detour","kind":"alternate","distance_mi":16.1,"distance_km":25.9,"source":"RWGPS route 48552686 (sampled)","note":"Optional out-and-back to the best surf beach on the cape."},"geometry":{"type":"LineString","coordinates":[[-110.09942,23.39511],[-110.09994,23.39393],[-110.10098,23.39332],[-110.10272,23.39327],[-110.10387,23.39263],[-110.10536,23.3921],[-110.10635,23.39267],[-110.1085,23.39221],[-110.10946,23.39122],[-110.11064,23.38889],[-110.11126,23.38791],[-110.11199,23.38736],[-110.11255,23.38655],[-110.11372,23.38607],[-110.1175,23.38482],[-110.11782,23.38353],[-110.12083,23.38124],[-110.12338,23.37929],[-110.12472,23.3785],[-110.12717,23.37777],[-110.12982,23.3772],[-110.13242,23.37627],[-110.13505,23.37515],[-110.13704,23.3751],[-110.13952,23.37311],[-110.1417,23.37149],[-110.14283,23.37144],[-110.14412,23.37012],[-110.14604,23.36796],[-110.14686,23.3665],[-110.14812,23.36572],[-110.15121,23.36485],[-110.15043,23.36228],[-110.14871,23.35862],[-110.1487,23.35771],[-110.1494,23.35744],[-110.15106,23.35677],[-110.15138,23.35451],[-110.15409,23.35432],[-110.15558,23.35381],[-110.15658,23.35396],[-110.15847,23.35408],[-110.16048,23.35394],[-110.16153,23.35233],[-110.16225,23.35099],[-110.16288,23.34739],[-110.16773,23.34495],[-110.17205,23.34277],[-110.17331,23.3421],[-110.17453,23.33884],[-110.17595,23.33485],[-110.17675,23.33267],[-110.17713,23.33008],[-110.17636,23.33362],[-110.17505,23.33735],[-110.17358,23.34139],[-110.17214,23.34273],[-110.16773,23.34495],[-110.16272,23.34749],[-110.16189,23.34886],[-110.16244,23.3515],[-110.16076,23.35281],[-110.1604,23.35393],[-110.15831,23.35408],[-110.15646,23.35399],[-110.15558,23.35381],[-110.15426,23.35429],[-110.1516,23.35454],[-110.15147,23.3554],[-110.14956,23.3574],[-110.14877,23.35769],[-110.14837,23.35797],[-110.15014,23.36165],[-110.15147,23.36479],[-110.1485,23.36553],[-110.14691,23.36631],[-110.14632,23.36756],[-110.14439,23.36988],[-110.14293,23.37137],[-110.142,23.37151],[-110.14014,23.3726],[-110.13731,23.37492],[-110.13599,23.3752],[-110.13367,23.37572],[-110.13039,23.37705],[-110.12805,23.37759],[-110.1253,23.37807],[-110.12364,23.37896],[-110.12209,23.38033],[-110.11862,23.38282],[-110.11766,23.38463],[-110.11458,23.38585],[-110.11314,23.38653],[-110.11219,23.38687],[-110.1118,23.38771],[-110.11084,23.38819],[-110.11031,23.39043],[-110.10871,23.39217],[-110.10675,23.39258],[-110.10582,23.39248],[-110.10438,23.39228],[-110.1035,23.39318],[-110.10187,23.39337],[-110.1003,23.39344],[-110.0994,23.39479],[-110.09936,23.3949]]}},{"type":"Feature","properties":{"id":"la_paz_shortcut","name":"La Paz \u2192 San Juan de los Planes shortcut","kind":"alternate","distance_mi":30.5,"distance_km":49.1,"source":"RWGPS route 48552716 (sampled)","note":"Paved shortcut that skips the Los Divisaderos dirt climb."},"geometry":{"type":"LineString","coordinates":[[-110.31512,24.15956],[-110.313,24.15853],[-110.31346,24.15616],[-110.30992,24.15374],[-110.30615,24.15122],[-110.30255,24.14874],[-110.30056,24.14667],[-110.30281,24.1438],[-110.30516,24.14091],[-110.30734,24.13815],[-110.30233,24.13472],[-110.29839,24.132],[-110.29774,24.13018],[-110.3008,24.12803],[-110.30407,24.12415],[-110.30375,24.12226],[-110.29908,24.12139],[-110.29593,24.12149],[-110.29458,24.1208],[-110.29375,24.11889],[-110.29344,24.11581],[-110.29288,24.11159],[-110.2918,24.10988],[-110.28918,24.1083],[-110.28502,24.10671],[-110.28098,24.10517],[-110.27722,24.10374],[-110.27311,24.10217],[-110.26805,24.10024],[-110.26301,24.09832],[-110.258,24.0964],[-110.25358,24.09469],[-110.24814,24.09263],[-110.24285,24.09061],[-110.23764,24.08861],[-110.23242,24.08661],[-110.22719,24.08462],[-110.22196,24.08262],[-110.21669,24.08062],[-110.21143,24.07862],[-110.20616,24.07662],[-110.20123,24.07475],[-110.1959,24.07271],[-110.19058,24.07066],[-110.18734,24.06928],[-110.18547,24.06796],[-110.18158,24.06592],[-110.17799,24.06394],[-110.17411,24.06135],[-110.17058,24.05899],[-110.16691,24.05737],[-110.16207,24.05534],[-110.15775,24.0535],[-110.15459,24.05191],[-110.1516,24.04995],[-110.14876,24.04761],[-110.14619,24.04585],[-110.1431,24.04386],[-110.13869,24.04162],[-110.13497,24.03971],[-110.13051,24.03747],[-110.12783,24.03596],[-110.12487,24.03277],[-110.12138,24.02913],[-110.11769,24.02614],[-110.11449,24.02362],[-110.11151,24.0213],[-110.10892,24.02042],[-110.10757,24.02147],[-110.10677,24.02151],[-110.10483,24.02038],[-110.10197,24.01881],[-110.09805,24.01809],[-110.09428,24.01729],[-110.09233,24.01763],[-110.09075,24.01917],[-110.08903,24.0199],[-110.0874,24.01914],[-110.08422,24.01733],[-110.07895,24.01531],[-110.07367,24.01328],[-110.0684,24.01126],[-110.06376,24.00945],[-110.05852,24.00742],[-110.05327,24.0054],[-110.04803,24.00337],[-110.04285,24.00136],[-110.03769,23.99933],[-110.03231,23.99725],[-110.02693,23.99517],[-110.02154,23.99308],[-110.01616,23.991],[-110.01077,23.98891],[-110.00539,23.98683],[-110.00003,23.98474],[-109.99471,23.98265],[-109.99135,23.98155],[-109.98577,23.98014],[-109.98019,23.97873],[-109.97475,23.97734],[-109.96947,23.97602],[-109.96422,23.97467],[-109.95911,23.97332],[-109.95395,23.97199],[-109.94953,23.97084],[-109.94389,23.96945],[-109.93865,23.96817],[-109.93612,23.96753],[-109.93398,23.96687]]}}]}